{
    "links": {
        "self": "http://www.neowsapp.com/rest/v1/neo/3739170?api_key=iIulBulltgU6a56xZRHN4H3l9WmuAYTsLGpBGhQ2"
    },
    "id": "3739170",
    "neo_reference_id": "3739170",
    "name": "(2016 AM2)",
    "designation": "2016 AM2",
    "nasa_jpl_url": "http://ssd.jpl.nasa.gov/sbdb.cgi?sstr=3739170",
    "absolute_magnitude_h": 26.9,
    "estimated_diameter": {
        "kilometers": {
            "estimated_diameter_min": 0.0110803882,
            "estimated_diameter_max": 0.0247765013
        },
        "meters": {
            "estimated_diameter_min": 11.0803882126,
            "estimated_diameter_max": 24.7765012606
        },
        "miles": {
            "estimated_diameter_min": 0.0068850319,
            "estimated_diameter_max": 0.0153953994
        },
        "feet": {
            "estimated_diameter_min": 36.3529808636,
            "estimated_diameter_max": 81.2877363957
        }
    },
    "is_potentially_hazardous_asteroid": false,
    "close_approach_data": [
        {
            "close_approach_date": "2015-12-27",
            "close_approach_date_full": "2015-Dec-27 19:37",
            "epoch_date_close_approach": 1451245020000,
            "relative_velocity": {
                "kilometers_per_second": "11.9815972005",
                "kilometers_per_hour": "43133.7499219278",
                "miles_per_hour": "26801.6347778779"
            },
            "miss_distance": {
                "astronomical": "0.0056691783",
                "lunar": "2.2053103587",
                "kilometers": "848096.998330221",
                "miles": "526983.0382342098"
            },
            "orbiting_body": "Earth"
        },
        {
            "close_approach_date": "2015-12-28",
            "close_approach_date_full": "2015-Dec-28 02:32",
            "epoch_date_close_approach": 1451269920000,
            "relative_velocity": {
                "kilometers_per_second": "12.1352032608",
                "kilometers_per_hour": "43686.731738965",
                "miles_per_hour": "27145.2361741363"
            },
            "miss_distance": {
                "astronomical": "0.0062145112",
                "lunar": "2.4174448568",
                "kilometers": "929677.638611144",
                "miles": "577674.8974920272"
            },
            "orbiting_body": "Moon"
        }
    ],
    "orbital_data": {
        "orbit_id": "4",
        "orbit_determination_date": "2019-07-16 06:15:10",
        "first_observation_date": "2016-01-02",
        "last_observation_date": "2016-01-04",
        "data_arc_in_days": 2,
        "observations_used": 21,
        "orbit_uncertainty": "8",
        "minimum_orbit_intersection": "3.26734E-5",
        "jupiter_tisserand_invariant": "3.749",
        "epoch_osculation": "2457390.5",
        "eccentricity": ".5450390652861905",
        "semi_major_axis": "1.900891555622722",
        "inclination": "3.071302668660712",
        "ascending_node_longitude": "94.8572917311742",
        "orbital_period": "957.2699785483198",
        "perihelion_distance": ".8648313989357012",
        "perihelion_argument": "311.0878987970717",
        "aphelion_distance": "2.936951712309744",
        "perihelion_time": "2457348.934397146561",
        "mean_anomaly": "15.63155365002678",
        "mean_motion": ".376069455918729",
        "equinox": "J2000",
        "orbit_class": {
            "orbit_class_type": "APO",
            "orbit_class_description": "Near-Earth asteroid orbits which cross the Earth’s orbit similar to that of 1862 Apollo",
            "orbit_class_range": "a (semi-major axis) > 1.0 AU; q (perihelion) < 1.017 AU"
        }
    },
    "is_sentry_object": false
}